ORBCOMM FM115 [+]       
1 41186U 15081H   23354.40377636  .00001275  00000+0  29740-3 0  9997
2 41186  46.9990 105.6609 0000326 230.5626 129.5231 14.60190218428099
ORBCOMM FM108 [+]       
1 41187U 15081J   23353.57126476  .00001100  00000+0  28441-3 0  9993
2 41187  47.0004 159.4296 0002263 323.0005  37.0723 14.56135259427220
ORBCOMM FM117 [+]       
1 41188U 15081K   23352.57645900  .00000518  00000+0  15380-3 0  9991
2 41188  46.9989 163.0509 0002736 324.0891  35.9810 14.56126672427120
ORBCOMM FM116 [+]       
1 41189U 15081L   23353.80089351  .00001142  00000+0  29390-3 0  9991
2 41189  47.0023 247.0956 0001723  69.9993 290.1077 14.56136421426182
